{
  "type": "FeatureCollection",
  "features": [
    {
      "type": "Feature",
      "properties": {
        "norad_id": 30243,
        "name": "FENGYUN 1C DEB",
        "group": "fengyun-1c-debris",
        "lat": -69.72237086353469,
        "lon": 165.0267479255727,
        "alt_km": 865.3742323739125,
        "timestamp": "2025-12-24T09:46:31.278975+00:00",
        "meta_object_name": "FENGYUN 1C DEB",
        "meta_object_id": "1999-025XC",
        "meta_epoch": "2025-12-24T00:13:23.824128",
        "meta_mean_motion": 14.13037619,
        "meta_eccentricity": 0.0013194,
        "meta_inclination": 98.6926,
        "meta_ra_of_asc_node": 9.1012,
        "meta_arg_of_pericenter": 89.4683,
        "meta_mean_anomaly": 298.577,
        "meta_ephemeris_type": 0,
        "meta_classification_type": "U",
        "meta_norad_cat_id": 30243,
        "meta_element_set_no": 999,
        "meta_rev_at_epoch": 97438,
        "meta_bstar": 0.00035655,
        "meta_mean_motion_dot": 6.23e-06,
        "meta_mean_motion_ddot": 0,
        "tle_line1": "1 30243U 99025XC  25358.00930352  .00000623  00000+0  35655-3 0  9999",
        "tle_line2": "2 30243  98.6926   9.1012 0013194  89.4683 298.5770 14.13037619974387"
      },
      "geometry": {
        "type": "Point",
        "coordinates": [
          165.0267479255727,
          -69.72237086353469
        ]
      }
    },
    {
      "type": "Feature",
      "properties": {
        "norad_id": 30244,
        "name": "FENGYUN 1C DEB",
        "group": "fengyun-1c-debris",
        "lat": 9.266232685009932,
        "lon": 69.8504058628682,
        "alt_km": 846.0946024912018,
        "timestamp": "2025-12-24T09:46:31.278985+00:00",
        "meta_object_name": "FENGYUN 1C DEB",
        "meta_object_id": "1999-025XD",
        "meta_epoch": "2025-12-23T04:44:23.790048",
        "meta_mean_motion": 14.15030333,
        "meta_eccentricity": 0.00091667,
        "meta_inclination": 99.1434,
        "meta_ra_of_asc_node": 247.1056,
        "meta_arg_of_pericenter": 284.1161,
        "meta_mean_anomaly": 206.9912,
        "meta_ephemeris_type": 0,
        "meta_classification_type": "U",
        "meta_norad_cat_id": 30244,
        "meta_element_set_no": 999,
        "meta_rev_at_epoch": 97494,
        "meta_bstar": 0.00033896471,
        "meta_mean_motion_dot": 6.1e-06,
        "meta_mean_motion_ddot": 0,
        "tle_line1": "1 30244U 99025XD  25357.19749757  .00000610  00000+0  33896-3 0  9997",
        "tle_line2": "2 30244  99.1434 247.1056 0009166 284.1161 206.9912 14.15030333974940"
      },
      "geometry": {
        "type": "Point",
        "coordinates": [
          69.8504058628682,
          9.266232685009932
        ]
      }
    },
    {
      "type": "Feature",
      "properties": {
        "norad_id": 30245,
        "name": "FENGYUN 1C DEB",
        "group": "fengyun-1c-debris",
        "lat": -62.51306393417884,
        "lon": 147.78715853814234,
        "alt_km": 844.5092996305757,
        "timestamp": "2025-12-24T09:46:31.278995+00:00",
        "meta_object_name": "FENGYUN 1C DEB",
        "meta_object_id": "1999-025XE",
        "meta_epoch": "2025-12-23T22:08:47.583744",
        "meta_mean_motion": 13.79093208,
        "meta_eccentricity": 0.0192866,
        "meta_inclination": 98.8898,
        "meta_ra_of_asc_node": 344.8391,
        "meta_arg_of_pericenter": 220.9675,
        "meta_mean_anomaly": 137.6853,
        "meta_ephemeris_type": 0,
        "meta_classification_type": "U",
        "meta_norad_cat_id": 30245,
        "meta_element_set_no": 999,
        "meta_rev_at_epoch": 94848,
        "meta_bstar": 0.00087467,
        "meta_mean_motion_dot": 9.86e-06,
        "meta_mean_motion_ddot": 0,
        "tle_line1": "1 30245U 99025XE  25357.92277296  .00000986  00000+0  87467-3 0  9992",
        "tle_line2": "2 30245  98.8898 344.8391 0192866 220.9675 137.6853 13.79093208948489"
      },
      "geometry": {
        "type": "Point",
        "coordinates": [
          147.78715853814234,
          -62.51306393417884
        ]
      }
    },
    {
      "type": "Feature",
      "properties": {
        "norad_id": 30246,
        "name": "FENGYUN 1C DEB",
        "group": "fengyun-1c-debris",
        "lat": 12.251664922028972,
        "lon": 138.48042168313575,
        "alt_km": 966.705285944734,
        "timestamp": "2025-12-24T09:46:31.279005+00:00",
        "meta_object_name": "FENGYUN 1C DEB",
        "meta_object_id": "1999-025XF",
        "meta_epoch": "2025-12-24T03:23:22.996896",
        "meta_mean_motion": 13.37023444,
        "meta_eccentricity": 0.0370495,
        "meta_inclination": 98.6737,
        "meta_ra_of_asc_node": 140.1527,
        "meta_arg_of_pericenter": 71.1089,
        "meta_mean_anomaly": 104.9485,
        "meta_ephemeris_type": 0,
        "meta_classification_type": "U",
        "meta_norad_cat_id": 30246,
        "meta_element_set_no": 999,
        "meta_rev_at_epoch": 92292,
        "meta_bstar": 0.00027018,
        "meta_mean_motion_dot": 1.76e-06,
        "meta_mean_motion_ddot": 0,
        "tle_line1": "1 30246U 99025XF  25358.14123839  .00000176  00000+0  27018-3 0  9998",
        "tle_line2": "2 30246  98.6737 140.1527 0370495  71.1089 104.9485 13.37023444922927"
      },
      "geometry": {
        "type": "Point",
        "coordinates": [
          138.48042168313575,
          12.251664922028972
        ]
      }
    },
    {
      "type": "Feature",
      "properties": {
        "norad_id": 30247,
        "name": "FENGYUN 1C DEB",
        "group": "fengyun-1c-debris",
        "lat": 6.555341172437412,
        "lon": 86.49658270267572,
        "alt_km": 803.3883767940688,
        "timestamp": "2025-12-24T09:46:31.279016+00:00",
        "meta_object_name": "FENGYUN 1C DEB",
        "meta_object_id": "1999-025XG",
        "meta_epoch": "2025-12-23T00:37:43.984992",
        "meta_mean_motion": 14.59554959,
        "meta_eccentricity": 0.01920885,
        "meta_inclination": 98.2768,
        "meta_ra_of_asc_node": 264.1596,
        "meta_arg_of_pericenter": 320.1379,
        "meta_mean_anomaly": 161.7552,
        "meta_ephemeris_type": 0,
        "meta_classification_type": "U",
        "meta_norad_cat_id": 30247,
        "meta_element_set_no": 999,
        "meta_rev_at_epoch": 97432,
        "meta_bstar": 0.0035617208,
        "meta_mean_motion_dot": 0.00021926,
        "meta_mean_motion_ddot": 0,
        "tle_line1": "1 30247U 99025XG  25357.02620353  .00021926  00000+0  35617-2 0  9997",
        "tle_line2": "2 30247  98.2768 264.1596 0192088 320.1379 161.7552 14.59554959974322"
      },
      "geometry": {
        "type": "Point",
        "coordinates": [
          86.49658270267572,
          6.555341172437412
        ]
      }
    },
    {
      "type": "Feature",
      "properties": {
        "norad_id": 30248,
        "name": "FENGYUN 1C DEB",
        "group": "fengyun-1c-debris",
        "lat": -29.170447526343033,
        "lon": -1.4830181230206116,
        "alt_km": 702.1834704232324,
        "timestamp": "2025-12-24T09:46:31.279026+00:00",
        "meta_object_name": "FENGYUN 1C DEB",
        "meta_object_id": "1999-025XH",
        "meta_epoch": "2025-12-23T11:25:56.715168",
        "meta_mean_motion": 14.59524477,
        "meta_eccentricity": 0.00282892,
        "meta_inclination": 99.0997,
        "meta_ra_of_asc_node": 182.6298,
        "meta_arg_of_pericenter": 117.2088,
        "meta_mean_anomaly": 243.1997,
        "meta_ephemeris_type": 0,
        "meta_classification_type": "U",
        "meta_norad_cat_id": 30248,
        "meta_element_set_no": 999,
        "meta_rev_at_epoch": 97585,
        "meta_bstar": 0.003706777,
        "meta_mean_motion_dot": 0.0001769,
        "meta_mean_motion_ddot": 0,
        "tle_line1": "1 30248U 99025XH  25357.47635087  .00017690  00000+0  37068-2 0  9992",
        "tle_line2": "2 30248  99.0997 182.6298 0028289 117.2088 243.1997 14.59524477975851"
      },
      "geometry": {
        "type": "Point",
        "coordinates": [
          -1.4830181230206116,
          -29.170447526343033
        ]
      }
    },
    {
      "type": "Feature",
      "properties": {
        "norad_id": 30249,
        "name": "FENGYUN 1C DEB",
        "group": "fengyun-1c-debris",
        "lat": -31.466396041919545,
        "lon": -21.823805963409463,
        "alt_km": 722.6346684751961,
        "timestamp": "2025-12-24T09:46:31.279037+00:00",
        "meta_object_name": "FENGYUN 1C DEB",
        "meta_object_id": "1999-025XJ",
        "meta_epoch": "2025-12-24T01:07:07.129056",
        "meta_mean_motion": 14.57974452,
        "meta_eccentricity": 0.0026837,
        "meta_inclination": 98.9594,
        "meta_ra_of_asc_node": 163.3285,
        "meta_arg_of_pericenter": 5.976,
        "meta_mean_anomaly": 113.8583,
        "meta_ephemeris_type": 0,
        "meta_classification_type": "U",
        "meta_norad_cat_id": 30249,
        "meta_element_set_no": 999,
        "meta_rev_at_epoch": 97728,
        "meta_bstar": 0.0032717,
        "meta_mean_motion_dot": 0.00015074,
        "meta_mean_motion_ddot": 0,
        "tle_line1": "1 30249U 99025XJ  25358.04661029  .00015074  00000+0  32717-2 0  9992",
        "tle_line2": "2 30249  98.9594 163.3285 0026837   5.9760 113.8583 14.57974452977285"
      },
      "geometry": {
        "type": "Point",
        "coordinates": [
          -21.823805963409463,
          -31.466396041919545
        ]
      }
    }
  ]
}